CCSDS_OEM_VERS = 2.0  
CREATION_DATE  = 2026-03-24T10:46:11
ORIGINATOR     = ESOC/OPS-GFA                            
 
 



META_START
OBJECT_NAME          = LISA                                    
OBJECT_ID            = -1000                                   
CENTER_NAME          = SUN                     
REF_FRAME            = EME2000 
TIME_SYSTEM          = TCB
START_TIME           = 2036-12-23T00:00:30.346418            
STOP_TIME            = 2047-09-06T15:19:44.790416            
INTERPOLATION        = HERMITE                                 
INTERPOLATION_DEGREE = 7                                       
META_STOP

2039-03-29T04:03:01.605655    -1.45019021896463305e+08    3.20323295020208955e+07    1.29054559291603863e+07   -7.02166946054591712e+00   -2.67236135847081471e+01   -1.13984942377758554e+01    5.80932425687297282e-06   -1.28327244367861246e-06   -5.17013522017934242e-07
2039-03-30T00:21:45.521035    -1.45516925147544622e+08    3.00748333506616913e+07    1.20706009909274075e+07   -6.59616396891672263e+00   -2.68145792712984949e+01   -1.14350754426041750e+01    5.82839471540733768e-06   -1.20467397162129655e-06   -4.83496555536027654e-07
2039-03-30T20:40:29.436414    -1.45983663946522623e+08    2.81108957851430327e+07    1.12331607871986069e+07   -6.16931026873940347e+00   -2.68997887650432617e+01   -1.14692022570766472e+01    5.84619833728876564e-06   -1.12583869483900588e-06   -4.49885145811703075e-07
2039-03-31T16:59:13.351793    -1.46419143026450902e+08    2.61409383449818529e+07    1.03933150416330136e+07   -5.74120111275675704e+00   -2.69792253914213234e+01   -1.15008680485225518e+01    5.86273197559943870e-06   -1.04678416513640907e-06   -4.16186771910656725e-07
2039-04-01T13:17:57.267173    -1.46823273909443885e+08    2.41653837410692349e+07    9.55124394248172641e+06   -5.31192947434682061e+00   -2.70528737602307565e+01   -1.15300667314897307e+01    5.87799273830146496e-06   -9.67527956443561329e-07   -3.82408921049432682e-07
2039-04-02T09:36:41.182552    -1.47195974981147230e+08    2.21846557561757080e+07    8.70712809991228022e+06   -4.88158852993252879e+00   -2.71207197668704083e+01   -1.15567927682027776e+01    5.89197795856963004e-06   -8.88087655452335417e-07   -3.48559084760191429e-07
2039-04-03T05:55:25.097932    -1.47537171599328160e+08    2.01991791422515623e+07    7.86114850180159509e+06   -4.45027164377315021e+00   -2.71827505929043411e+01   -1.15810411687280084e+01    5.90468515928987123e-06   -8.08480851358071387e-07   -3.14644754703697136e-07
2039-04-04T02:08:25.715630    -1.47845416141597956e+08    1.82187305892539620e+07    7.01746969037762843e+06   -4.02010330759808543e+00   -2.72387044763842532e+01   -1.16027111106757701e+01    5.91606219945502671e-06   -7.29100026692903893e-07   -2.80833085483965961e-07
2039-04-04T22:21:26.333329    -1.48122323772551984e+08    1.62344200368095897e+07    6.17230332223185804e+06   -3.58915313411090242e+00   -2.72888761377030846e+01   -1.16219183897363614e+01    5.92616970057291942e-06   -6.49589188292785780e-07   -2.46972396975102585e-07
2039-04-05T18:34:26.951026    -1.48367840985519975e+08    1.42466686338795591e+07    5.32582874878621940e+06   -3.15751356821882734e+00   -2.73332567478507968e+01   -1.16386597078578102e+01    5.93500640226161043e-06   -5.69965745300663223e-07   -2.13070098272418872e-07
2039-04-06T14:47:27.568725    -1.48581920939410120e+08    1.22558981470490433e+07    4.47822555119383521e+06   -2.72527713889283296e+00   -2.73718387451247906e+01   -1.16529323062990997e+01    5.94257126033408843e-06   -4.90247113040307011e-07   -1.79133600032963187e-07
2039-04-07T11:00:28.186423    -1.48764523521454841e+08    1.02625308508454505e+07    3.62967349338925257e+06   -2.29253644232669807e+00   -2.74046158353725602e+01   -1.16647339656502780e+01    5.94886347608986425e-06   -4.10450707346643889e-07   -1.45170311920438211e-07
2039-04-08T07:13:28.804122    -1.48915615381312788e+08    8.26698942630414851e+06    2.78035247878722660e+06   -1.85938412318542357e+00   -2.74315829918316041e+01   -1.16740630056719166e+01    5.95388251963786714e-06   -3.30593939194383784e-07   -1.11187640206412553e-07
2039-04-09T03:26:29.421820    -1.49035169942482144e+08    6.26969686597253010e+06    1.93044250983130559e+06   -1.42591285437316939e+00   -2.74527364545892709e+01   -1.16809182849656725e+01    5.95762814725839086e-06   -2.50694209624151896e-07   -7.71929855274507319e-08
2039-04-09T23:39:30.039518    -1.49123167396975428e+08    4.27107638356132805e+06    1.08012364960122202e+06   -9.92215315754890526e-01   -2.74680737296840860e+01   -1.16852992004872647e+01    5.96010041279093493e-06   -1.70768904965084599e-07   -4.31937407977857099e-08
2039-04-10T19:52:30.657216    -1.49179594689206094e+08    2.27155132645230740e+06    2.29575984688129276e+05   -5.58384172265831147e-01   -2.74775935878702420e+01   -1.16872056869132130e+01    5.96129967307116345e-06   -9.08353923557514671e-08   -9.19728927821306932e-09
2039-04-11T16:05:31.274915    -1.49204445495036751e+08    2.71545089271273464e+05   -6.21020411453200504e+05   -1.24512051843043814e-01   -2.74812960630668641e+01   -1.16866382158726907e+01    5.96122658737947137e-06   -1.09110155604620167e-08    2.47889971998664470e-08
2039-04-12T12:18:31.892613    -1.49197720201939285e+08   -1.72851897326449305e+06   -1.47148551546633989e+06    3.09308476386886078e-01   -2.74791824505136404e+01   -1.16835977950558032e+01    5.95988211095318058e-06    6.89869089157209315e-08    5.87577598540927502e-08
2039-04-13T08:31:32.510312    -1.49159425896216959e+08   -3.72821763601541147e+06   -2.32163939216009341e+06    7.42984923229767169e-01   -2.74712553046545089e+01   -1.16780859672096593e+01    5.95726748251937615e-06    1.48841095413789627e-07    9.27016544144946669e-08
2039-04-14T04:44:33.128009    -1.49089576363238722e+08   -5.72712789739619195e+06   -3.17130223447139747e+06    1.17642489942120498e+00   -2.74575184367709717e+01   -1.16701048090335480e+01    5.95338420582822439e-06    2.28634292416777435e-07    1.26613352433570255e-07
2039-04-15T00:57:33.745707    -1.48988192106635422e+08   -7.72482707945125923e+06   -4.02029440611517988e+06    1.60953613406530316e+00   -2.74379769123866879e+01   -1.16596569299845818e+01    5.94823402530894695e-06    3.08349285537553875e-07    1.60485542436320096e-07
2039-04-15T21:10:34.363406    -1.48855300392408729e+08   -9.72089293581908196e+06   -4.86843648771205544e+06    2.04222649108044152e+00   -2.74126370484649726e+01   -1.16467454710051221e+01    5.94181889567884360e-06    3.87968900218470635e-07    1.94310930917908756e-07
2039-04-16T17:23:34.981104    -1.48690935323902220e+08   -1.17149037693775073e+07   -5.71554932718492672e+06    2.47440398321819099e+00   -2.73815064104208012e+01   -1.16313741031833402e+01    5.93414094555540824e-06    4.67476004138313556e-07    2.28082243187273769e-07
2039-04-17T13:32:20.600316    -1.48495878460224241e+08   -1.36994655980707817e+07   -6.55849259910348523e+06    2.90446588768680058e+00   -2.73447332192644090e+01   -1.16136137673399435e+01    5.92523678177332578e-06    5.46575670626796153e-07    2.61674246815745281e-07
2039-04-18T09:41:06.219528    -1.48269655619842231e+08   -1.56811525256909151e+07   -7.40005950525434501e+06    3.33383672228658234e+00   -2.73022284522785696e+01   -1.15934195753717653e+01    5.91508420575747584e-06    6.25529794612384662e-07    2.95198199203641148e-07
2039-04-19T05:49:51.838740    -1.48012320230488420e+08   -1.76595492828092389e+07   -8.24007372221621592e+06    3.76242606101346233e+00   -2.72540032730408122e+01   -1.15707967207142595e+01    5.90368644351921845e-06    7.04321615373701545e-07    3.28646989063317888e-07
2039-04-20T01:58:37.457952    -1.47723932213097721e+08   -1.96342414208840616e+07   -9.07835930768410303e+06    4.19014371893339188e+00   -2.72000700592057854e+01   -1.15457509118787680e+01    5.89104692185819627e-06    7.82934415622586221e-07    3.62013524561486834e-07
2039-04-20T22:07:23.077164    -1.47404558013032854e+08   -2.16048154278339744e+07   -9.91474074976932630e+06    4.61689976773428423e+00   -2.71404423989499932e+01   -1.15182883708644876e+01    5.87716929461165184e-06    8.61351532436396211e-07    3.95290738094391093e-07
2039-04-21T18:16:08.696376    -1.47054270606558084e+08   -2.35708588301899806e+07   -1.07490430104700867e+07    5.04260455297565979e+00   -2.70751350866766956e+01   -1.14884158312476874e+01    5.86205746333546711e-06    9.39556366727128528e-07    4.28471590413375446e-07
2039-04-22T14:24:54.315587    -1.46673149487689167e+08   -2.55319602847002223e+07   -1.15810915645601116e+07    5.46716871263643434e+00   -2.70041641180870293e+01   -1.14561405359952282e+01    5.84571559242269698e-06    1.01753239124964694e-06    4.61549074101826307e-07
2039-04-23T10:33:39.934800    -1.46261280640546858e+08   -2.74877096622425094e+07   -1.24107124351347648e+07    5.89050319655716947e+00   -2.69275466847233602e+01   -1.14214702350494690e+01    5.82814811864861506e-06    1.09526315714726112e-06    4.94516216402703546e-07
2039-04-24T06:42:25.554011    -1.45818756502341658e+08   -2.94376981268998347e+07   -1.32377322270540893e+07    6.31251928637308435e+00   -2.68453011680908560e+01   -1.13844131827316044e+01    5.80935975516279427e-06    1.17273229903784265e-06    5.27366081398110900e-07
2039-04-25T02:51:11.173223    -1.45345675922116548e+08   -3.13815182130537778e+07   -1.40619781595222410e+07    6.73312861553417630e+00   -2.67574471334632591e+01   -1.13449781350104963e+01    5.78935548989326549e-06    1.24992353863530259e-06    5.60091771538522637e-07
2039-04-25T22:59:56.792435    -1.44842144120375723e+08   -3.33187639033512101e+07   -1.48832780990426224e+07    7.15224318900872458e+00   -2.66640053234788752e+01   -1.13031743466840631e+01    5.76814057841301360e-06    1.32682068691426324e-06    5.92686428525275367e-07
